start=new Date('2022-10-30T00:00:00.000Z').valueOf();
sats=[{"OBJECT_TYPE":"PAYLOAD","FILE":"3637863","REF_FRAME":"TEME","MEAN_MOTION":"15.06402756","LAUNCH_DATE":"2019-11-11","MEAN_ELEMENT_THEORY":"SGP4","REV_AT_EPOCH":"16323","NORAD_CAT_ID":"44760","PERIOD":"95.592","ARG_OF_PERICENTER":"42.5786","CENTER_NAME":"EARTH","TLE_LINE1":"1 44760U 19074AZ  22302.49725517 -.00000200  00000-0  55056-5 0  9990","ECCENTRICITY":"0.00021060","DECAY_DATE":null,"COUNTRY_CODE":"US","OBJECT_NAME":"STARLINK-1055","MEAN_MOTION_DOT":"-0.00000200","MEAN_MOTION_DDOT":"0.0000000000000","TIME_SYSTEM":"UTC","CLASSIFICATION_TYPE":"U","INCLINATION":"53.0569","RCS_SIZE":"LARGE","PERIAPSIS":"545.747","OBJECT_ID":"2019-074AZ","BSTAR":"0.00000550560000","SITE":"AFETR","EPHEMERIS_TYPE":"0","RA_OF_ASC_NODE":"335.7115","SEMIMAJOR_AXIS":"6925.340","ELEMENT_SET_NO":"999","GP_ID":"216474920","APOAPSIS":"548.664","EPOCH":"2022-10-29T11:56:02.846688","MEAN_ANOMALY":"317.5366","TLE_LINE2":"2 44760  53.0569 335.7115 0002106  42.5786 317.5366 15.06402756163239"},{"TLE_LINE2":"2 44761  53.0541 335.3679 0002156  47.0874 313.0295 15.06409069163241","EPOCH":"2022-10-29T13:47:30.579072","MEAN_ANOMALY":"313.0295","APOAPSIS":"548.679","GP_ID":"216473691","ELEMENT_SET_NO":"999","SEMIMAJOR_AXIS":"6925.321","RA_OF_ASC_NODE":"335.3679","EPHEMERIS_TYPE":"0","SITE":"AFETR","OBJECT_ID":"2019-074BA","BSTAR":"0.00002527100000","PERIAPSIS":"545.693","RCS_SIZE":"LARGE","INCLINATION":"53.0541","CLASSIFICATION_TYPE":"U","TIME_SYSTEM":"UTC","MEAN_MOTION_DDOT":"0.0000000000000","MEAN_MOTION_DOT":"0.00000095","OBJECT_NAME":"STARLINK-1056","DECAY_DATE":null,"COUNTRY_CODE":"US","ECCENTRICITY":"0.00021560","TLE_LINE1":"1 44761U 19074BA  22302.57465948  .00000095  00000-0  25271-4 0  9995","CENTER_NAME":"EARTH","ARG_OF_PERICENTER":"47.0874","PERIOD":"95.592","NORAD_CAT_ID":"44761","REV_AT_EPOCH":"16324","MEAN_ELEMENT_THEORY":"SGP4","LAUNCH_DATE":"2019-11-11","MEAN_MOTION":"15.06409069","REF_FRAME":"TEME","FILE":"3637863","OBJECT_TYPE":"PAYLOAD"},{"MEAN_ELEMENT_THEORY":"SGP4","NORAD_CAT_ID":"44762","REV_AT_EPOCH":"16354","PERIOD":"95.592","CENTER_NAME":"EARTH","ARG_OF_PERICENTER":"54.1755","FILE":"3637863","OBJECT_TYPE":"PAYLOAD","REF_FRAME":"TEME","LAUNCH_DATE":"2019-11-11","MEAN_MOTION":"15.06408958","EPHEMERIS_TYPE":"0","SITE":"AFETR","ELEMENT_SET_NO":"999","RA_OF_ASC_NODE":"314.4614","SEMIMAJOR_AXIS":"6925.321","GP_ID":"216473940","TLE_LINE2":"2 44762  53.0536 314.4614 0002073  54.1755 305.9426 15.06408958163543","MEAN_ANOMALY":"305.9426","EPOCH":"2022-10-29T18:36:46.541952","APOAPSIS":"548.622","DECAY_DATE":null,"COUNTRY_CODE":"US","ECCENTRICITY":"0.00020730","TLE_LINE1":"1 44762U 19074BB  22302.77553868  .00002591  00000-0  19277-3 0  9998","MEAN_MOTION_DDOT":"0.0000000000000","MEAN_MOTION_DOT":"0.00002591","OBJECT_NAME":"STARLINK-1057","CLASSIFICATION_TYPE":"U","TIME_SYSTEM":"UTC","BSTAR":"0.00019277000000","OBJECT_ID":"2019-074BB","PERIAPSIS":"545.750","RCS_SIZE":"LARGE","INCLINATION":"53.0536"},{"SEMIMAJOR_AXIS":"6925.290","RA_OF_ASC_NODE":"334.3471","ELEMENT_SET_NO":"999","SITE":"AFETR","EPHEMERIS_TYPE":"0","APOAPSIS":"548.396","MEAN_ANOMALY":"304.0630","EPOCH":"2022-10-29T19:04:36.395616","TLE_LINE2":"2 44763  53.0553 334.3471 0001792  56.0529 304.0630 15.06419258163274","GP_ID":"216474191","OBJECT_NAME":"STARLINK-1058","MEAN_MOTION_DOT":"0.00007019","MEAN_MOTION_DDOT":"0.0000000000000","TLE_LINE1":"1 44763U 19074BC  22302.79486569  .00007019  00000-0  48937-3 0  9999","ECCENTRICITY":"0.00017920","COUNTRY_CODE":"US","DECAY_DATE":null,"INCLINATION":"53.0553","RCS_SIZE":"LARGE","PERIAPSIS":"545.914","OBJECT_ID":"2019-074BC","BSTAR":"0.00048937000000","TIME_SYSTEM":"UTC","CLASSIFICATION_TYPE":"U","REV_AT_EPOCH":"16327","NORAD_CAT_ID":"44763","MEAN_ELEMENT_THEORY":"SGP4","ARG_OF_PERICENTER":"56.0529","CENTER_NAME":"EARTH","PERIOD":"95.591","OBJECT_TYPE":"PAYLOAD","FILE":"3637863","MEAN_MOTION":"15.06419258","LAUNCH_DATE":"2019-11-11","REF_FRAME":"TEME"},{"NORAD_CAT_ID":"44764","REV_AT_EPOCH":"16356","MEAN_ELEMENT_THEORY":"SGP4","CENTER_NAME":"EARTH","ARG_OF_PERICENTER":"82.4096","PERIOD":"95.358","FILE":"3637863","OBJECT_TYPE":"PAYLOAD","MEAN_MOTION":"15.10100400","LAUNCH_DATE":"2019-11-11","REF_FRAME":"TEME","ELEMENT_SET_NO":"999","SEMIMAJOR_AXIS":"6914.031","RA_OF_ASC_NODE":"313.0101","EPHEMERIS_TYPE":"0","SITE":"AFETR","EPOCH":"2022-10-29T18:08:09.361824","MEAN_ANOMALY":"277.7306","TLE_LINE2":"2 44764  53.0555 313.0101 0003619  82.4096 277.7306 15.10100400163562","APOAPSIS":"538.398","GP_ID":"216474421","MEAN_MOTION_DDOT":"0.0000000000000","OBJECT_NAME":"STARLINK-1059","MEAN_MOTION_DOT":"0.00020769","DECAY_DATE":null,"COUNTRY_CODE":"US","TLE_LINE1":"1 44764U 19074BD  22302.75566391  .00020769  00000-0  12743-2 0  9990","ECCENTRICITY":"0.00036190","PERIAPSIS":"533.393","BSTAR":"0.00127430000000","OBJECT_ID":"2019-074BD","INCLINATION":"53.0555","RCS_SIZE":"LARGE","CLASSIFICATION_TYPE":"U","TIME_SYSTEM":"UTC"},{"GP_ID":"216473191","EPOCH":"2022-10-29T11:00:19.214208","MEAN_ANOMALY":"307.5157","TLE_LINE2":"2 44765  53.0551 315.8813 0002089  52.6022 307.5157 15.06404325163493","APOAPSIS":"548.647","EPHEMERIS_TYPE":"0","SITE":"AFETR","ELEMENT_SET_NO":"999","SEMIMAJOR_AXIS":"6925.335","RA_OF_ASC_NODE":"315.8813","CLASSIFICATION_TYPE":"U","TIME_SYSTEM":"UTC","PERIAPSIS":"545.754","BSTAR":"-0.00005841800000","OBJECT_ID":"2019-074BE","INCLINATION":"53.0551","RCS_SIZE":"LARGE","COUNTRY_CODE":"US","DECAY_DATE":null,"TLE_LINE1":"1 44765U 19074BE  22302.45855572 -.00001152  00000-0 -58418-4 0  9998","ECCENTRICITY":"0.00020890","MEAN_MOTION_DDOT":"0.0000000000000","OBJECT_NAME":"STARLINK-1060","MEAN_MOTION_DOT":"-0.00001152","PERIOD":"95.592","CENTER_NAME":"EARTH","ARG_OF_PERICENTER":"52.6022","MEAN_ELEMENT_THEORY":"SGP4","NORAD_CAT_ID":"44765","REV_AT_EPOCH":"16349","REF_FRAME":"TEME","MEAN_MOTION":"15.06404325","LAUNCH_DATE":"2019-11-11","FILE":"3637863","OBJECT_TYPE":"PAYLOAD"},{"REF_FRAME":"TEME","MEAN_MOTION":"15.06399949","LAUNCH_DATE":"2019-11-11","FILE":"3637863","OBJECT_TYPE":"PAYLOAD","PERIOD":"95.592","CENTER_NAME":"EARTH","ARG_OF_PERICENTER":"54.1328","MEAN_ELEMENT_THEORY":"SGP4","NORAD_CAT_ID":"44766","REV_AT_EPOCH":"16327","CLASSIFICATION_TYPE":"U","TIME_SYSTEM":"UTC","PERIAPSIS":"546.008","BSTAR":"0.00002871100000","OBJECT_ID":"2019-074BF","INCLINATION":"53.0537","RCS_SIZE":"LARGE","COUNTRY_CODE":"US","DECAY_DATE":null,"TLE_LINE1":"1 44766U 19074BF  22302.78844486  .00000146  00000-0  28711-4 0  9990","ECCENTRICITY":"0.00017410","MEAN_MOTION_DDOT":"0.0000000000000","OBJECT_NAME":"STARLINK-1061","MEAN_MOTION_DOT":"0.00000146","GP_ID":"216473441","EPOCH":"2022-10-29T18:55:21.635904","MEAN_ANOMALY":"305.9822","TLE_LINE2":"2 44766  53.0537 334.4050 0001741  54.1328 305.9822 15.06399949163270","APOAPSIS":"548.419","EPHEMERIS_TYPE":"0","SITE":"AFETR","ELEMENT_SET_NO":"999","SEMIMAJOR_AXIS":"6925.349","RA_OF_ASC_NODE":"334.4050"},{"MEAN_ANOMALY":"310.3053","EPOCH":"2022-10-29T07:34:36.232032","TLE_LINE2":"2 44767  53.0563 336.5155 0002140  49.8123 310.3053 15.06408958163375","APOAPSIS":"548.668","GP_ID":"216413827","ELEMENT_SET_NO":"999","SEMIMAJOR_AXIS":"6925.321","RA_OF_ASC_NODE":"336.5155","EPHEMERIS_TYPE":"0","SITE":"AFETR","PERIAPSIS":"545.704","BSTAR":"-0.00002512000000","OBJECT_ID":"2019-074BG","INCLINATION":"53.0563","RCS_SIZE":"LARGE","CLASSIFICATION_TYPE":"U","TIME_SYSTEM":"UTC","MEAN_MOTION_DDOT":"0.0000000000000","OBJECT_NAME":"STARLINK-1062","MEAN_MOTION_DOT":"-0.00000656","DECAY_DATE":null,"COUNTRY_CODE":"US","TLE_LINE1":"1 44767U 19074BG  22302.31569713 -.00000656  00000-0 -25120-4 0  9996","ECCENTRICITY":"0.00021400","CENTER_NAME":"EARTH","ARG_OF_PERICENTER":"49.8123","PERIOD":"95.592","NORAD_CAT_ID":"44767","REV_AT_EPOCH":"16337","MEAN_ELEMENT_THEORY":"SGP4","MEAN_MOTION":"15.06408958","LAUNCH_DATE":"2019-11-11","REF_FRAME":"TEME","FILE":"3637231","OBJECT_TYPE":"PAYLOAD"},{"MEAN_MOTION_DOT":"-0.00004270","OBJECT_NAME":"STARLINK-1063","MEAN_MOTION_DDOT":"0.0000000000000","ECCENTRICITY":"0.00021630","TLE_LINE1":"1 44768U 19074BH  22302.53779712 -.00004270  00000-0 -26782-3 0  9993","DECAY_DATE":null,"COUNTRY_CODE":"US","RCS_SIZE":"LARGE","INCLINATION":"53.0556","OBJECT_ID":"2019-074BH","BSTAR":"-0.00026782000000","PERIAPSIS":"545.695","TIME_SYSTEM":"UTC","CLASSIFICATION_TYPE":"U","SEMIMAJOR_AXIS":"6925.328","RA_OF_ASC_NODE":"335.5110","ELEMENT_SET_NO":"999","SITE":"AFETR","EPHEMERIS_TYPE":"0","APOAPSIS":"548.691","TLE_LINE2":"2 44768  53.0556 335.5110 0002163  43.1397 316.9761 15.06406822163245","EPOCH":"2022-10-29T12:54:25.671168","MEAN_ANOMALY":"316.9761","GP_ID":"216474921","OBJECT_TYPE":"PAYLOAD","FILE":"3637863","LAUNCH_DATE":"2019-11-11","MEAN_MOTION":"15.06406822","REF_FRAME":"TEME","REV_AT_EPOCH":"16324","NORAD_CAT_ID":"44768","MEAN_ELEMENT_THEORY":"SGP4","ARG_OF_PERICENTER":"43.1397","CENTER_NAME":"EARTH","PERIOD":"95.592"},{"REV_AT_EPOCH":"16360","NORAD_CAT_ID":"44770","MEAN_ELEMENT_THEORY":"SGP4","ARG_OF_PERICENTER":"67.1504","CENTER_NAME":"EARTH","PERIOD":"94.556","OBJECT_TYPE":"PAYLOAD","FILE":"3637863","MEAN_MOTION":"15.22912663","LAUNCH_DATE":"2019-11-11","REF_FRAME":"TEME","SEMIMAJOR_AXIS":"6875.197","RA_OF_ASC_NODE":"307.1812","ELEMENT_SET_NO":"999","SITE":"AFETR","EPHEMERIS_TYPE":"0","APOAPSIS":"500.427","MEAN_ANOMALY":"293.0007","EPOCH":"2022-10-29T17:05:03.913440","TLE_LINE2":"2 44770  53.0004 307.1812 0004894  67.1504 293.0007 15.22912663163600","GP_ID":"216473692","OBJECT_NAME":"STARLINK-1065","MEAN_MOTION_DOT":"0.00047649","MEAN_MOTION_DDOT":"0.0000000000000","TLE_LINE1":"1 44770U 19074BK  22302.71185085  .00047649  00000-0  20061-2 0  9998","ECCENTRICITY":"0.00048940","DECAY_DATE":null,"COUNTRY_CODE":"US","INCLINATION":"53.0004","RCS_SIZE":"LARGE","PERIAPSIS":"493.698","BSTAR":"0.00200610000000","OBJECT_ID":"2019-074BK","TIME_SYSTEM":"UTC","CLASSIFICATION_TYPE":"U"}];
